{"type": "FeatureCollection", "features": [ {"type": "Feature", "properties": {"norad_id": 60453, "name": "LEGION 4", "group": "resource", "lat": -28.00906946689081, "lon": -87.24736298412358, "alt_km": 519.3076090008199, "timestamp": "2025-12-09T05:43:20.385742+00:00", "meta": {"OBJECT_NAME": "LEGION 4", "OBJECT_ID": "2024-146B", "EPOCH": "2025-12-08T17:40:35.220000", "MEAN_MOTION": 15.15761201, "ECCENTRICITY": 0.0009823, "INCLINATION": 45.0386, "RA_OF_ASC_NODE": 63.3316, "ARG_OF_PERICENTER": 290.2518, "MEAN_ANOMALY": 69.7305, "EPHEMERIS_TYPE": 0, "CLASSIFICATION_TYPE": "U", "NORAD_CAT_ID": 60453, "ELEMENT_SET_NO": 999, "REV_AT_EPOCH": 7197, "BSTAR": 0.0004244, "MEAN_MOTION_DOT": 7.987e-05, "MEAN_MOTION_DDOT": 0}, "tle": {"line1": "1 60453U 24146B   25342.73651875  .00007987  00000+0  42440-3 0  9990", "line2": "2 60453  45.0386  63.3316 0009823 290.2518  69.7305 15.15761201 71970"}}, "geometry": {"type": "Point", "coordinates": [-87.24736298412358, -28.00906946689081]}}, {"type": "Feature", "properties": {"norad_id": 60989, "name": "SENTINEL-2C", "group": "resource", "lat": -21.06413941160894, "lon": 59.10033547780013, "alt_km": 794.6243723161542, "timestamp": "2025-12-09T05:43:20.385753+00:00", "meta": {"OBJECT_NAME": "SENTINEL-2C", "OBJECT_ID": "2024-157A", "EPOCH": "2025-12-08T19:45:06.397344", "MEAN_MOTION": 14.30815796, "ECCENTRICITY": 0.0001188, "INCLINATION": 98.5686, "RA_OF_ASC_NODE": 55.3619, "ARG_OF_PERICENTER": 97.5465, "MEAN_ANOMALY": 262.5853, "EPHEMERIS_TYPE": 0, "CLASSIFICATION_TYPE": "U", "NORAD_CAT_ID": 60989, "ELEMENT_SET_NO": 999, "REV_AT_EPOCH": 6576, "BSTAR": 0.00017147, "MEAN_MOTION_DOT": 4.06e-06, "MEAN_MOTION_DDOT": 0}, "tle": {"line1": "1 60989U 24157A   25342.82299071  .00000406  00000+0  17147-3 0  9997", "line2": "2 60989  98.5686  55.3619 0001188  97.5465 262.5853 14.30815796 65768"}}, "geometry": {"type": "Point", "coordinates": [59.10033547780013, -21.06413941160894]}}, {"type": "Feature", "properties": {"norad_id": 61735, "name": "IONOSFERA-M 1", "group": "resource", "lat": -12.836081644478785, "lon": -144.8776408855483, "alt_km": 819.9814641996354, "timestamp": "2025-12-09T05:43:20.385763+00:00", "meta": {"OBJECT_NAME": "IONOSFERA-M 1", "OBJECT_ID": "2024-199A", "EPOCH": "2025-12-08T21:20:37.935744", "MEAN_MOTION": 14.22712896, "ECCENTRICITY": 0.0001142, "INCLINATION": 98.7413, "RA_OF_ASC_NODE": 212.767, "ARG_OF_PERICENTER": 27.0748, "MEAN_ANOMALY": 333.049, "EPHEMERIS_TYPE": 0, "CLASSIFICATION_TYPE": "U", "NORAD_CAT_ID": 61735, "ELEMENT_SET_NO": 999, "REV_AT_EPOCH": 10064, "BSTAR": 9.1622e-05, "MEAN_MOTION_DOT": 1.61e-06, "MEAN_MOTION_DDOT": 0}, "tle": {"line1": "1 61735U 24199A   25342.88932796  .00000161  00000+0  91622-4 0  9996", "line2": "2 61735  98.7413 212.7670 0001142  27.0748 333.0490 14.22712896100642"}}, "geometry": {"type": "Point", "coordinates": [-144.8776408855483, -12.836081644478785]}}, {"type": "Feature", "properties": {"norad_id": 61736, "name": "IONOSFERA-M 2", "group": "resource", "lat": 9.981103020585195, "lon": 34.57745379001969, "alt_km": 817.0831416086585, "timestamp": "2025-12-09T05:43:20.385774+00:00", "meta": {"OBJECT_NAME": "IONOSFERA-M 2", "OBJECT_ID": "2024-199B", "EPOCH": "2025-12-08T20:29:15.501696", "MEAN_MOTION": 14.22715028, "ECCENTRICITY": 0.0001556, "INCLINATION": 98.7412, "RA_OF_ASC_NODE": 212.6442, "ARG_OF_PERICENTER": 115.1556, "MEAN_ANOMALY": 244.9783, "EPHEMERIS_TYPE": 0, "CLASSIFICATION_TYPE": "U", "NORAD_CAT_ID": 61736, "ELEMENT_SET_NO": 999, "REV_AT_EPOCH": 10376, "BSTAR": 9.4336e-05, "MEAN_MOTION_DOT": 1.67e-06, "MEAN_MOTION_DDOT": 0}, "tle": {"line1": "1 61736U 24199B   25342.85365164  .00000167  00000+0  94336-4 0  9994", "line2": "2 61736  98.7412 212.6442 0001556 115.1556 244.9783 14.22715028103764"}}, "geometry": {"type": "Point", "coordinates": [34.57745379001969, 9.981103020585195]}}, {"type": "Feature", "properties": {"norad_id": 63772, "name": "BIOMASS", "group": "resource", "lat": 21.60143186587048, "lon": -8.479963821476028, "alt_km": 668.6103446438183, "timestamp": "2025-12-09T05:43:20.385784+00:00", "meta": {"OBJECT_NAME": "BIOMASS", "OBJECT_ID": "2025-090A", "EPOCH": "2025-12-08T19:11:10.588704", "MEAN_MOTION": 14.67534213, "ECCENTRICITY": 0.0001256, "INCLINATION": 98.07, "RA_OF_ASC_NODE": 167.8671, "ARG_OF_PERICENTER": 79.5046, "MEAN_ANOMALY": 280.63, "EPHEMERIS_TYPE": 0, "CLASSIFICATION_TYPE": "U", "NORAD_CAT_ID": 63772, "ELEMENT_SET_NO": 999, "REV_AT_EPOCH": 3276, "BSTAR": 0.00052678, "MEAN_MOTION_DOT": 2.94e-05, "MEAN_MOTION_DDOT": 0}, "tle": {"line1": "1 63772U 25090A   25342.79942811  .00002940  00000+0  52678-3 0  9993", "line2": "2 63772  98.0700 167.8671 0001256  79.5046 280.6300 14.67534213 32765"}}, "geometry": {"type": "Point", "coordinates": [-8.479963821476028, 21.60143186587048]}}, {"type": "Feature", "properties": {"norad_id": 64694, "name": "GOSAT-GW (IBUKI GW)", "group": "resource", "lat": 7.053579740109092, "lon": -82.18754664450782, "alt_km": 670.5840279796075, "timestamp": "2025-12-09T05:43:20.385794+00:00", "meta": {"OBJECT_NAME": "GOSAT-GW (IBUKI GW)", "OBJECT_ID": "2025-141A", "EPOCH": "2025-12-08T18:14:08.042784", "MEAN_MOTION": 14.67565462, "ECCENTRICITY": 0.0001495, "INCLINATION": 98.0423, "RA_OF_ASC_NODE": 278.345, "ARG_OF_PERICENTER": 82.5315, "MEAN_ANOMALY": 277.6059, "EPHEMERIS_TYPE": 0, "CLASSIFICATION_TYPE": "U", "NORAD_CAT_ID": 64694, "ELEMENT_SET_NO": 999, "REV_AT_EPOCH": 2391, "BSTAR": 0.00038232, "MEAN_MOTION_DOT": 2.122e-05, "MEAN_MOTION_DDOT": 0}, "tle": {"line1": "1 64694U 25141A   25342.75981531  .00002122  00000+0  38232-3 0  9994", "line2": "2 64694  98.0423 278.3450 0001495  82.5315 277.6059 14.67565462 23916"}}, "geometry": {"type": "Point", "coordinates": [-82.18754664450782, 7.053579740109092]}}, {"type": "Feature", "properties": {"norad_id": 64876, "name": "IONOSFERA-M 3", "group": "resource", "lat": -49.45269478440271, "lon": 115.04184944466155, "alt_km": 828.9453236270119, "timestamp": "2025-12-09T05:43:20.385805+00:00", "meta": {"OBJECT_NAME": "IONOSFERA-M 3", "OBJECT_ID": "2025-155A", "EPOCH": "2025-12-08T20:11:46.072608", "MEAN_MOTION": 14.21439685, "ECCENTRICITY": 0.0002319, "INCLINATION": 98.5779, "RA_OF_ASC_NODE": 304.8181, "ARG_OF_PERICENTER": 66.1405, "MEAN_ANOMALY": 294.0016, "EPHEMERIS_TYPE": 0, "CLASSIFICATION_TYPE": "U", "NORAD_CAT_ID": 64876, "ELEMENT_SET_NO": 999, "REV_AT_EPOCH": 1936, "BSTAR": 0.0001091, "MEAN_MOTION_DOT": 1.96e-06, "MEAN_MOTION_DDOT": 0}, "tle": {"line1": "1 64876U 25155A   25342.84150547  .00000196  00000+0  10910-3 0  9998", "line2": "2 64876  98.5779 304.8181 0002319  66.1405 294.0016 14.21439685 19364"}}, "geometry": {"type": "Point", "coordinates": [115.04184944466155, -49.45269478440271]}}, {"type": "Feature", "properties": {"norad_id": 64877, "name": "IONOSFERA-M 4", "group": "resource", "lat": 49.91977322873211, "lon": -65.20966479279839, "alt_km": 814.7289490589683, "timestamp": "2025-12-09T05:43:20.385815+00:00", "meta": {"OBJECT_NAME": "IONOSFERA-M 4", "OBJECT_ID": "2025-155B", "EPOCH": "2025-12-08T21:02:16.035072", "MEAN_MOTION": 14.2144078, "ECCENTRICITY": 0.0001676, "INCLINATION": 98.5778, "RA_OF_ASC_NODE": 304.7717, "ARG_OF_PERICENTER": 67.2162, "MEAN_ANOMALY": 292.9193, "EPHEMERIS_TYPE": 0, "CLASSIFICATION_TYPE": "U", "NORAD_CAT_ID": 64877, "ELEMENT_SET_NO": 999, "REV_AT_EPOCH": 1936, "BSTAR": 0.000107, "MEAN_MOTION_DOT": 1.91e-06, "MEAN_MOTION_DDOT": 0}, "tle": {"line1": "1 64877U 25155B   25342.87657448  .00000191  00000+0  10700-3 0  9996", "line2": "2 64877  98.5778 304.7717 0001676  67.2162 292.9193 14.21440780 19366"}}, "geometry": {"type": "Point", "coordinates": [-65.20966479279839, 49.91977322873211]}}, {"type": "Feature", "properties": {"norad_id": 64899, "name": "MICROCARB", "group": "resource", "lat": -69.86391518018135, "lon": 81.20266183603155, "alt_km": 669.9228314356506, "timestamp": "2025-12-09T05:43:20.385825+00:00", "meta": {"OBJECT_NAME": "MICROCARB", "OBJECT_ID": "2025-156A", "EPOCH": "2025-12-08T18:37:40.673280", "MEAN_MOTION": 14.72048184, "ECCENTRICITY": 0.0016885, "INCLINATION": 98.0029, "RA_OF_ASC_NODE": 58.1851, "ARG_OF_PERICENTER": 156.9107, "MEAN_ANOMALY": 203.2863, "EPHEMERIS_TYPE": 0, "CLASSIFICATION_TYPE": "U", "NORAD_CAT_ID": 64899, "ELEMENT_SET_NO": 999, "REV_AT_EPOCH": 1995, "BSTAR": 0.00024354, "MEAN_MOTION_DOT": 1.484e-05, "MEAN_MOTION_DDOT": 0}, "tle": {"line1": "1 64899U 25156A   25342.77616520  .00001484  00000+0  24354-3 0  9992", "line2": "2 64899  98.0029  58.1851 0016885 156.9107 203.2863 14.72048184 19958"}}, "geometry": {"type": "Point", "coordinates": [81.20266183603155, -69.86391518018135]}}, {"type": "Feature", "properties": {"norad_id": 64900, "name": "CO3D 3", "group": "resource", "lat": 80.50435185114962, "lon": 8.336427112140955, "alt_km": 496.94108451238117, "timestamp": "2025-12-09T05:43:20.385836+00:00", "meta": {"OBJECT_NAME": "CO3D 3", "OBJECT_ID": "2025-156B", "EPOCH": "2025-12-08T18:17:44.446272", "MEAN_MOTION": 15.2019842, "ECCENTRICITY": 0.0001356, "INCLINATION": 97.4341, "RA_OF_ASC_NODE": 59.1865, "ARG_OF_PERICENTER": 106.1908, "MEAN_ANOMALY": 253.9476, "EPHEMERIS_TYPE": 0, "CLASSIFICATION_TYPE": "U", "NORAD_CAT_ID": 64900, "ELEMENT_SET_NO": 999, "REV_AT_EPOCH": 2060, "BSTAR": 0.00045813, "MEAN_MOTION_DOT": 9.862e-05, "MEAN_MOTION_DDOT": 0}, "tle": {"line1": "1 64900U 25156B   25342.76231998  .00009862  00000+0  45813-3 0  9997", "line2": "2 64900  97.4341  59.1865 0001356 106.1908 253.9476 15.20198420 20609"}}, "geometry": {"type": "Point", "coordinates": [8.336427112140955, 80.50435185114962]}}]}